{
  "links" : {
    "next" : "https://api.nasa.gov/neo/rest/v1/feed?start_date=1999-09-09&end_date=1999-09-09&detailed=true&api_key=t0TVs3DtDT2H8Oy2Zy8m2eVrNsAVKAexjcZXUckd",
    "prev" : "https://api.nasa.gov/neo/rest/v1/feed?start_date=1999-09-07&end_date=1999-09-07&detailed=true&api_key=t0TVs3DtDT2H8Oy2Zy8m2eVrNsAVKAexjcZXUckd",
    "self" : "https://api.nasa.gov/neo/rest/v1/feed?start_date=1999-09-08&end_date=1999-09-08&detailed=true&api_key=t0TVs3DtDT2H8Oy2Zy8m2eVrNsAVKAexjcZXUckd"
  },
  "element_count" : 8,
  "near_earth_objects" : {
    "1999-09-08" : [ {
      "links" : {
        "self" : "https://api.nasa.gov/neo/rest/v1/neo/3752782?api_key=t0TVs3DtDT2H8Oy2Zy8m2eVrNsAVKAexjcZXUckd"
      },
      "neo_reference_id" : "3752782",
      "name" : "(2016 JA6)",
      "nasa_jpl_url" : "http://ssd.jpl.nasa.gov/sbdb.cgi?sstr=3752782",
      "absolute_magnitude_h" : 26.3,
      "estimated_diameter" : {
        "kilometers" : {
          "estimated_diameter_min" : 0.0146067964,
          "estimated_diameter_max" : 0.0326617897
        },
        "meters" : {
          "estimated_diameter_min" : 14.6067964271,
          "estimated_diameter_max" : 32.6617897446
        },
        "miles" : {
          "estimated_diameter_min" : 0.0090762397,
          "estimated_diameter_max" : 0.020295089
        },
        "feet" : {
          "estimated_diameter_min" : 47.92256199,
          "estimated_diameter_max" : 107.1581062656
        }
      },
      "is_potentially_hazardous_asteroid" : false,
      "close_approach_data" : [ {
        "close_approach_date" : "1999-09-08",
        "epoch_date_close_approach" : 936774000000,
        "relative_velocity" : {
          "kilometers_per_second" : "8.1718504322",
          "kilometers_per_hour" : "29418.6615560223",
          "miles_per_hour" : "18279.6122318518"
        },
        "miss_distance" : {
          "astronomical" : "0.4685069114",
          "lunar" : "182.2491912842",
          "kilometers" : "70087632",
          "miles" : "43550436"
        },
        "orbiting_body" : "Earth"
      } ],
      "orbital_data" : {
        "orbit_id" : "16",
        "orbit_determination_date" : "2017-04-06 08:26:09",
        "orbit_uncertainty" : "6",
        "minimum_orbit_intersection" : ".000822865",
        "jupiter_tisserand_invariant" : "5.629",
        "epoch_osculation" : "2458000.5",
        "eccentricity" : ".2762164774225852",
        "semi_major_axis" : "1.087621882655883",
        "inclination" : "16.0101129839823",
        "ascending_node_longitude" : "222.229441548185",
        "orbital_period" : "414.3003805415065",
        "perihelion_distance" : ".7872027974609547",
        "perihelion_argument" : "269.2977677875609",
        "aphelion_distance" : "1.388040967850811",
        "perihelion_time" : "2457856.547135935211",
        "mean_anomaly" : "125.085646785044",
        "mean_motion" : ".8689347558152523",
        "equinox" : "J2000"
      }
    }, {
      "links" : {
        "self" : "https://api.nasa.gov/neo/rest/v1/neo/3758926?api_key=t0TVs3DtDT2H8Oy2Zy8m2eVrNsAVKAexjcZXUckd"
      },
      "neo_reference_id" : "3758926",
      "name" : "(2016 RT1)",
      "nasa_jpl_url" : "http://ssd.jpl.nasa.gov/sbdb.cgi?sstr=3758926",
      "absolute_magnitude_h" : 21.9,
      "estimated_diameter" : {
        "kilometers" : {
          "estimated_diameter_min" : 0.1108038821,
          "estimated_diameter_max" : 0.2477650126
        },
        "meters" : {
          "estimated_diameter_min" : 110.8038821264,
          "estimated_diameter_max" : 247.7650126055
        },
        "miles" : {
          "estimated_diameter_min" : 0.068850319,
          "estimated_diameter_max" : 0.1539539936
        },
        "feet" : {
          "estimated_diameter_min" : 363.5298086356,
          "estimated_diameter_max" : 812.8773639568
        }
      },
      "is_potentially_hazardous_asteroid" : true,
      "close_approach_data" : [ {
        "close_approach_date" : "1999-09-08",
        "epoch_date_close_approach" : 936774000000,
        "relative_velocity" : {
          "kilometers_per_second" : "16.2106690698",
          "kilometers_per_hour" : "58358.4086513135",
          "miles_per_hour" : "36261.6456422564"
        },
        "miss_distance" : {
          "astronomical" : "0.2507376823",
          "lunar" : "97.5369644165",
          "kilometers" : "37509824",
          "miles" : "23307526"
        },
        "orbiting_body" : "Earth"
      } ],
      "orbital_data" : {
        "orbit_id" : "9",
        "orbit_determination_date" : "2017-04-06 08:24:11",
        "orbit_uncertainty" : "3",
        "minimum_orbit_intersection" : ".0355628",
        "jupiter_tisserand_invariant" : "6.154",
        "epoch_osculation" : "2458000.5",
        "eccentricity" : ".1113940636425484",
        "semi_major_axis" : ".9603119316762836",
        "inclination" : "30.57608895198857",
        "ascending_node_longitude" : "343.8196178094898",
        "orbital_period" : "343.7295854163451",
        "perihelion_distance" : ".853338883242437",
        "perihelion_argument" : "145.0364873871033",
        "aphelion_distance" : "1.06728498011013",
        "perihelion_time" : "2458108.274287980577",
        "mean_anomaly" : "247.1242240436982",
        "mean_motion" : "1.047334926273359",
        "equinox" : "J2000"
      }
    } ]
  }
}